{"type": "FeatureCollection", "features": [{"type": "Feature", "properties": {"dataset": "obs", "phase": "pos", "height_gpm": 5870.0, "pressure_hPa": 500, "segment": 0, "period": "1948-2014"}, "geometry": {"type": "LineString", "coordinates": [[-160.0, 33.009440829727104], [-162.5, 33.438103019245986], [-165.0, 33.91767248146951], [-167.5, 34.390758875701344], [-170.0, 34.72637223124234], [-172.5, 34.85507372220625], [-175.0, 34.79602061639868], [-177.5, 34.61537822163191], [-180.0, 34.37878343023503]]}}, {"type": "Feature", "properties": {"dataset": "obs", "phase": "pos", "height_gpm": 5870.0, "pressure_hPa": 500, "segment": 0, "period": "1948-2014"}, "geometry": {"type": "LineString", "coordinates": [[177.5, 34.12367753529604], [175.0, 33.85569675650738], [172.5, 33.57697456321794], [170.0, 33.296427768241955], [167.5, 33.02448394973327], [165.0, 32.77043790562925], [162.5, 32.544083902227456], [161.92324512156193, 32.5], [160.0, 32.242986840816954], [157.5, 32.00420234669852], [155.0, 31.830220528353408], [152.5, 31.67494552564253], [150.0, 31.502745223133243], [147.5, 31.31290100889464], [145.0, 31.103559147098427], [142.5, 30.868408913888906], [140.0, 30.58345455484959], [137.5, 30.23394775551976], [136.0956135786074, 30.0], [135.0, 29.682176498661264], [132.5, 28.902073615483104], [130.0, 28.117857392692862], [127.92051865803796, 27.5], [127.5, 27.164680198761715], [125.0, 25.52389559860604], [123.98199075123978, 25.0], [124.22117183578501, 22.5], [125.0, 21.95392300370344], [127.5, 20.477575858442492], [128.45836009420066, 20.0], [130.0, 19.44767865497831], [132.5, 18.69148754856718], [135.0, 18.04066426408282], [137.03882269411343, 17.5], [137.5, 17.363914614480116], [140.0, 16.69770248702335], [142.5, 16.320741038847448], [145.0, 16.229614919864524], [147.5, 16.248820639620675], [150.0, 16.12461967141833], [152.5, 15.82250346532463], [155.0, 15.519077013772511], [157.5, 15.403830760603713], [160.0, 15.44615822186126], [162.5, 15.49727803817947], [165.0, 15.435056633172737], [167.5, 15.285059988108175], [170.0, 15.200140878828922], [172.5, 15.203253937228842], [175.0, 15.172120967043234], [176.56166465748174, 15.0], [177.5, 14.923574913874239]]}}, {"type": "Feature", "properties": {"dataset": "obs", "phase": "pos", "height_gpm": 5870.0, "pressure_hPa": 500, "segment": 0, "period": "1948-2014"}, "geometry": {"type": "LineString", "coordinates": [[-180.0, 14.649199021406663], [-177.5, 14.484701025868867], [-175.0, 14.534822321770642], [-172.5, 14.703857202480446], [-170.0, 14.895420467922843], [-167.5, 14.97980790921046], [-165.0, 14.947332964067193], [-162.5, 14.904785919418332], [-160.0, 14.909617792526756]]}}, {"type": "Feature", "properties": {"dataset": "obs", "phase": "neg", "height_gpm": 5870.0, "pressure_hPa": 500, "segment": 0, "period": "1948-2014"}, "geometry": {"type": "LineString", "coordinates": [[-160.0, 33.28407992001448], [-162.5, 33.26999803979453], [-165.0, 33.24652103635814], [-167.5, 33.23548454200542], [-170.0, 33.22492469323477], [-172.5, 33.20082739021587], [-175.0, 33.15585449246496], [-177.5, 33.10420992805722], [-180.0, 33.04906819546268]]}}, {"type": "Feature", "properties": {"dataset": "obs", "phase": "neg", "height_gpm": 5870.0, "pressure_hPa": 500, "segment": 0, "period": "1948-2014"}, "geometry": {"type": "LineString", "coordinates": [[177.5, 32.99318764673331], [175.0, 32.92765353665338], [172.5, 32.84244667155002], [170.0, 32.730713896811466], [167.5, 32.581347209045354], [166.40813349752472, 32.5], [165.0, 32.29742829555566], [162.5, 31.92534649023118], [160.0, 31.60529564009508], [157.5, 31.35263987007012], [155.0, 31.138613644939905], [152.5, 30.92360771140178], [150.0, 30.688479301085057], [147.5, 30.441658119009976], [145.0, 30.17679120895163], [143.54057519231753, 30.0], [142.5, 29.760406392250268], [140.0, 29.077008425263195], [137.5, 28.30148841447547], [135.05770534086923, 27.5], [135.0, 27.439152470933738], [132.55198151226892, 25.0], [134.51603185192175, 22.5], [135.0, 22.264580412340113], [137.5, 21.1554951733068], [140.0, 20.091976226906176], [140.26138971300117, 20.0], [142.5, 19.219934989162176], [145.0, 18.74204705393504], [147.5, 18.574987201122596], [150.0, 18.466465213483588], [152.5, 18.33108412458592], [155.0, 18.213129054977404], [157.5, 18.219436022758593], [160.0, 18.339894945722], [162.5, 18.501320666825116], [165.0, 18.627336467479893], [167.5, 18.698477359550246], [170.0, 18.688024326159454], [172.5, 18.54146011750209], [175.0, 18.272710485993397], [177.5, 17.916653559545562]]}}, {"type": "Feature", "properties": {"dataset": "obs", "phase": "neg", "height_gpm": 5870.0, "pressure_hPa": 500, "segment": 0, "period": "1948-2014"}, "geometry": {"type": "LineString", "coordinates": [[-180.0, 17.515931774266367], [-179.87934244695634, 17.499999999999996], [-177.5, 17.252511747537266], [-175.0, 17.201412647909986], [-172.5, 17.375521860273928], [-170.8474659587963, 17.5], [-170.0, 17.643820074745715], [-167.5, 17.541780882484776], [-167.35653821396318, 17.499999999999996], [-165.0, 17.203914791671718], [-162.5, 16.763847831057774], [-160.0, 16.44994491892416]]}}, {"type": "Feature", "properties": {"dataset": "historical_common_r1", "phase": "neg", "height_gpm": 5870.0, "pressure_hPa": 500, "segment": 0, "period": "1948-2014"}, "geometry": {"type": "LineString", "coordinates": [[148.49227154599487, 18.125], [149.0625, 18.008708031356804], [150.9375, 17.767954495893], [152.8125, 17.616068450505754], [154.6875, 17.553844262915213], [156.5625, 17.56168223397283], [158.4375, 17.665179612783348], [160.3125, 17.87917731472376], [161.87017314399873, 18.125], [162.1875, 18.17889253226099], [164.0625, 18.59341518345176], [165.9375, 19.142147890546074], [166.60044293903115, 19.375], [167.8125, 19.863155202266615], [169.45070985332973, 20.625], [169.6875, 20.76701854107368], [171.28493902439038, 21.875], [171.5625, 22.20126146789074], [172.27566845708725, 23.125], [172.27261036288803, 24.375], [171.5625, 24.915969006055732], [170.35060789965138, 25.625], [169.6875, 25.78097696869023], [167.8125, 26.12955164313002], [165.9375, 26.382684464919606], [164.0625, 26.567898157268743], [162.1875, 26.70067091948939], [160.3125, 26.75970496894366], [158.4375, 26.748375239718605], [156.5625, 26.67680023347754], [154.6875, 26.52123099006858], [152.8125, 26.283868906335513], [150.9375, 26.002753437467344], [149.0625, 25.67659819995665], [148.82103592443656, 25.625], [147.1875, 25.083144999742863], [145.3125, 24.412904151520905], [145.2117200415414, 24.375], [143.4375, 23.259697629800755], [143.21026813809317, 23.125], [142.36833543781933, 21.875], [142.73661233993175, 20.625], [143.4375, 20.049799369447257], [144.52405103453475, 19.375], [145.3125, 19.055007960291885], [147.1875, 18.43567866856606], [148.49227154599487, 18.125]]}}, {"type": "Feature", "properties": {"dataset": "historical_common_r2", "phase": "neg", "height_gpm": 5870.0, "pressure_hPa": 500, "segment": 0, "period": "1948-2014"}, "geometry": {"type": "LineString", "coordinates": [[151.53249205087337, 18.125], [152.8125, 17.937757273424523], [154.6875, 17.73388583553688], [156.5625, 17.634676007005254], [158.4375, 17.64573732718911], [160.3125, 17.79728106573524], [162.1875, 18.067808271538553], [162.50100398100471, 18.125], [164.0625, 18.44482233284674], [165.9375, 18.955531271015207], [167.1174541785781, 19.375], [167.8125, 19.667575781705914], [169.6875, 20.622428698504734], [169.69200984853364, 20.625], [171.36404220779195, 21.875], [171.5625, 22.126605334651412], [172.3786170928645, 23.125], [172.31716061185546, 24.375], [171.5625, 24.84425372110589], [170.08744600432033, 25.625], [169.6875, 25.713271887424007], [167.8125, 26.090422317711642], [165.9375, 26.395606826801842], [164.0625, 26.62818376929849], [162.1875, 26.757341867469723], [160.3125, 26.767679952909326], [158.4375, 26.671005385996008], [156.5625, 26.51290608218741], [154.6875, 26.317459226681727], [152.8125, 26.080889330146817], [150.9375, 25.81816930634372], [149.61425214667042, 25.625], [149.0625, 25.496715318620684], [147.1875, 25.050773326571708], [145.3125, 24.575848714568266], [144.6276624210642, 24.375], [143.4375, 23.754499037414675], [142.40849904223415, 23.125], [141.69985564938668, 21.875], [142.30534666177368, 20.625], [143.4375, 19.843868640850026], [144.62010164997184, 19.375], [145.3125, 19.176049779885478], [147.1875, 18.811718369335978], [149.0625, 18.51968763531795], [150.9375, 18.221391593262197], [151.53249205087337, 18.125]]}}, {"type": "Feature", "properties": {"dataset": "historical_r5", "phase": "pos", "height_gpm": 5870.0, "pressure_hPa": 500, "segment": 0, "period": "1900-2014"}, "geometry": {"type": "LineString", "coordinates": [[149.2814550548798, 18.125000000000004], [150.9375, 17.840279441716355], [152.8125, 17.65299893450112], [154.6875, 17.582583386242252], [156.5625, 17.588459092522477], [158.4375, 17.63904682274248], [160.3125, 17.745949117465745], [162.1875, 17.954179911482377], [163.15515508328036, 18.125], [164.0625, 18.306864886801943], [165.9375, 18.809346335503104], [167.6164883443983, 19.375], [167.8125, 19.462183407165316], [169.6875, 20.41240132004576], [170.04535602254055, 20.625], [171.26524390243947, 21.875], [171.31798126817552, 23.125], [169.6875, 24.342195581380633], [169.63821942446054, 24.375], [167.8125, 24.86509604614219], [165.9375, 25.289806106832213], [164.0625, 25.62440604879917], [164.05789566578778, 25.625], [162.1875, 25.765047644986474], [160.3125, 25.847757960534043], [158.4375, 25.8793807479664], [156.5625, 25.859999285371366], [154.6875, 25.781814358713817], [152.8125, 25.640214476795688], [152.67794900647777, 25.625], [150.9375, 25.316330081870866], [149.0625, 24.8978680047535], [147.1875, 24.425660096444894], [147.0084407016468, 24.375], [145.3125, 23.552587997951846], [144.4732030280348, 23.125], [143.4443454883368, 21.875], [143.74168746739872, 20.625], [145.3125, 19.434000903901993], [145.41470600228052, 19.375], [147.1875, 18.69964675837966], [149.0625, 18.169577939351893], [149.2814550548798, 18.125000000000004]]}}, {"type": "Feature", "properties": {"dataset": "historical_common_r5", "phase": "pos", "height_gpm": 5870.0, "pressure_hPa": 500, "segment": 0, "period": "1948-2014"}, "geometry": {"type": "LineString", "coordinates": [[150.76875841184676, 15.625], [150.9375, 15.595557499472047], [152.8125, 15.39682814302213], [154.6875, 15.296751809673468], [156.5625, 15.259296895017947], [158.4375, 15.258259441902771], [160.3125, 15.317909916217474], [162.1875, 15.47250955003254], [163.3863104524214, 15.625000000000002], [164.0625, 15.713889743391647], [165.9375, 16.032438974499183], [167.8125, 16.44527222107634], [169.4105845080739, 16.875], [169.6875, 16.957288783980957], [171.5625, 17.600161529499406], [172.83963500200196, 18.125], [173.4375, 18.42489441475789], [175.12462693230174, 19.375000000000004], [175.3125, 19.529131089902595], [176.5305173055454, 20.625], [177.17818991435604, 21.875], [176.89241688783085, 23.125], [175.3125, 24.18335360718489], [174.99748461932649, 24.375], [173.4375, 24.788380611767007], [171.5625, 25.217379736058437], [169.6875, 25.5945410511471], [169.52685562805993, 25.625], [167.8125, 25.81810702197373], [165.9375, 26.009926026166756], [164.0625, 26.17191417349178], [162.1875, 26.29402671188661], [160.3125, 26.379600204116745], [158.4375, 26.42801046468778], [156.5625, 26.41938842185305], [154.6875, 26.343675834481637], [152.8125, 26.19883843045666], [150.9375, 25.973297285072395], [149.0625, 25.66705365193934], [148.85262915128845, 25.625], [147.1875, 25.13419858870988], [145.3125, 24.547934308763992], [144.79095305258897, 24.375], [143.4375, 23.667694965449392], [142.43112338296248, 23.125], [141.5625, 22.252115526121774], [141.20356455001803, 21.875], [140.92879661148072, 20.625], [141.46047061033101, 19.375], [141.5625, 19.26538049552597], [142.9036734097706, 18.125], [143.4375, 17.805858901731455], [145.3125, 16.947343024307596], [145.51762656062863, 16.875], [147.1875, 16.374500205043653], [149.0625, 15.935982191042754], [150.76875841184676, 15.625]]}}, {"type": "Feature", "properties": {"dataset": "ssp245_r1", "phase": "pos", "height_gpm": 5870.0, "pressure_hPa": 500, "segment": 0, "period": "2015-2100"}, "geometry": {"type": "LineString", "coordinates": [[-158.4375, 37.13752106062243], [-160.3125, 36.97969405801065], [-161.31865963411036, 36.875], [-162.1875, 36.77199755480694], [-164.0625, 36.51031279085227], [-165.9375, 36.22419518341671], [-167.8125, 35.92752100209119], [-169.6875, 35.63032184635838], [-169.7207456328752, 35.625], [-171.5625, 35.29694025568265], [-173.4375, 34.98492643494278], [-175.3125, 34.69789683307846], [-177.1875, 34.437166017477125], [-177.6610273886074, 34.375], [-179.0625, 34.17160348758311]]}}, {"type": "Feature", "properties": {"dataset": "ssp245_r1", "phase": "pos", "height_gpm": 5870.0, "pressure_hPa": 500, "segment": 0, "period": "2015-2100"}, "geometry": {"type": "LineString", "coordinates": [[179.0625, 33.92193661125981], [177.1875, 33.69650784036326], [175.3125, 33.498587894053856], [173.4375, 33.32865207491961], [171.5625, 33.184650066637936], [170.6668819401604, 33.125], [169.6875, 33.05332118992274], [167.8125, 32.933443795298544], [165.9375, 32.830754583691984], [164.0625, 32.74346297744245], [162.1875, 32.66831304184991], [160.3125, 32.59993857975487], [158.4375, 32.53487329186739], [156.5625, 32.46750176689423], [154.6875, 32.39376560508896], [152.8125, 32.31031500742169], [150.9375, 32.21548093252245], [149.0625, 32.104879736155105], [147.1875, 31.97067095812877], [146.0850086309581, 31.875], [145.3125, 31.801046589163], [143.4375, 31.590240692456177], [141.5625, 31.35056417551732], [139.6875, 31.087163801609062], [137.8125, 30.805609368168763], [136.63480348786965, 30.625], [135.9375, 30.50632464003788], [134.0625, 30.19508833772179], [132.1875, 29.898616342339903], [130.3125, 29.631841284288726], [128.4375, 29.39972572991789], [128.19719335313027, 29.375], [126.5625, 29.182715946140913], [124.6875, 29.00286626533748], [122.8125, 28.871741697110807], [120.9375, 28.7896626586509], [119.0625, 28.791951350273052], [117.1875, 28.827859115571552], [115.3125, 28.911569601097803], [113.4375, 29.077500241869824], [111.5625, 29.360163324382892], [111.4753154910444, 29.375], [109.6875, 29.688966598988312], [107.8125, 30.20088699399757], [106.47174794455918, 30.625], [105.9375, 30.785931333493906], [104.0625, 31.384816170346575], [102.1875, 31.603634758818053], [101.11564704651295, 31.875], [100.3125, 32.15222530916676], [98.4375, 32.66257085177501], [96.78789470039726, 33.125], [96.5625, 33.2500048004916], [94.96726946814277, 34.375], [94.77406522292802, 35.625], [94.6875, 35.66767497074309], [92.8125, 35.692941575600855], [92.56589180781509, 35.625], [92.8125, 35.318343004514034], [93.99530113176695, 34.375], [94.22441643941625, 33.125], [92.8125, 32.3894322519081], [91.5740179437409, 31.875], [90.9375, 31.75492575258675], [89.0625, 31.7916913571644]]}}, {"type": "Feature", "properties": {"dataset": "ssp245_r1", "phase": "neg", "height_gpm": 5870.0, "pressure_hPa": 500, "segment": 0, "period": "2015-2100"}, "geometry": {"type": "LineString", "coordinates": [[89.0625, 34.48422295868097], [89.27957649762857, 34.375], [89.0625, 33.97887684124226]]}}, {"type": "Feature", "properties": {"dataset": "ssp245_r1", "phase": "neg", "height_gpm": 5870.0, "pressure_hPa": 500, "segment": 1, "period": "2015-2100"}, "geometry": {"type": "LineString", "coordinates": [[-158.4375, 36.95571184289512], [-159.3432303725545, 36.875], [-160.3125, 36.77727771097134], [-162.1875, 36.56006124978525], [-164.0625, 36.329911723673455], [-165.9375, 36.09566148133216], [-167.8125, 35.86100368833032], [-169.6875, 35.63133253800925], [-169.7388090456792, 35.625], [-171.5625, 35.37371068159648], [-173.4375, 35.134642590337734], [-175.3125, 34.91600274859972], [-177.1875, 34.715153729493174], [-179.0625, 34.53432501980435]]}}, {"type": "Feature", "properties": {"dataset": "ssp245_r1", "phase": "neg", "height_gpm": 5870.0, "pressure_hPa": 500, "segment": 1, "period": "2015-2100"}, "geometry": {"type": "LineString", "coordinates": [[179.1221215488087, 34.375], [179.0625, 34.369149342642245], [177.1875, 34.19331829734942], [175.3125, 34.0371385616386], [173.4375, 33.89842032134064], [171.5625, 33.77570472318033], [169.6875, 33.66938996923409], [167.8125, 33.57824769807317], [165.9375, 33.501901563233076], [164.0625, 33.43692467084751], [162.1875, 33.38190842625708], [160.3125, 33.33632022532784], [158.4375, 33.29827178104156], [156.5625, 33.25745801215579], [154.6875, 33.210108433561814], [152.8125, 33.147362200012026], [152.31031825675404, 33.125], [150.9375, 33.05769626111587], [149.0625, 32.94096328486627], [147.1875, 32.791601257442665], [145.3125, 32.61168330700086], [143.4375, 32.403362308641306], [141.5625, 32.169532191427024], [139.6875, 31.909515399334147], [139.4561060346178, 31.875], [137.8125, 31.604939328264365], [135.9375, 31.287099961730206], [134.0625, 30.971592849350507], [132.1875, 30.65785681783717], [131.98154876595595, 30.625], [130.3125, 30.32691664431036], [128.4375, 30.024672491704887], [126.5625, 29.76916899526813], [124.6875, 29.574895055885733], [122.8125, 29.440681351506264], [121.21491875923311, 29.375], [120.9375, 29.361656483261697], [119.0625, 29.37235472905791], [118.9839576890617, 29.375], [117.1875, 29.43581688786926], [115.3125, 29.58370509319996], [113.4375, 29.826739532957298], [111.5625, 30.20879143731327], [109.6875, 30.599718779634653], [109.59386354461122, 30.625], [107.8125, 31.12406265375005], [105.9375, 31.649415268395693], [105.20669305814397, 31.875], [104.0625, 32.241098991077976], [102.1875, 32.67182313737288], [100.96467006513751, 33.125], [100.3125, 33.43407641976375], [98.51317534328547, 34.375], [98.4375, 34.41940668712428], [97.10671238570183, 35.625], [96.5625, 36.02000874864199], [95.05605510276462, 36.875], [94.6875, 36.9668152505679], [92.8125, 37.194190868098104], [90.9375, 37.26446175096014], [89.0625, 37.40268005924814]]}}, {"type": "Feature", "properties": {"dataset": "ssp245_r2", "phase": "pos", "height_gpm": 5870.0, "pressure_hPa": 500, "segment": 0, "period": "2015-2100"}, "geometry": {"type": "LineString", "coordinates": [[-158.4375, 37.426804294058314], [-160.3125, 37.201165596006945], [-162.1875, 36.96303852071656], [-162.84486295749252, 36.875], [-164.0625, 36.690078779041826], [-165.9375, 36.404150411790305], [-167.8125, 36.123412115908636], [-169.6875, 35.85441954883981], [-171.36843764779996, 35.625], [-171.5625, 35.595325448244566], [-173.4375, 35.31475051624221], [-175.3125, 35.059729218457015], [-177.1875, 34.83087012452138], [-179.0625, 34.626613203021144]]}}, {"type": "Feature", "properties": {"dataset": "ssp245_r2", "phase": "pos", "height_gpm": 5870.0, "pressure_hPa": 500, "segment": 0, "period": "2015-2100"}, "geometry": {"type": "LineString", "coordinates": [[179.0625, 34.44292230630772], [178.29564985242052, 34.375], [177.1875, 34.265926586061056], [175.3125, 34.10520703486336], [173.4375, 33.96777218263715], [171.5625, 33.85091514384335], [169.6875, 33.75137395245778], [167.8125, 33.664049865638816], [165.9375, 33.587136807363805], [164.0625, 33.52235325489197], [162.1875, 33.465215272012486], [160.3125, 33.4063212044729], [158.4375, 33.3414680077213], [156.5625, 33.27236581499004], [154.6875, 33.19690980465864], [153.11343219764922, 33.125], [152.8125, 33.10990868144106], [150.9375, 33.0004048787894], [149.0625, 32.876189926965694], [147.1875, 32.736058584497094], [145.3125, 32.58191608837884], [143.4375, 32.41438017414093], [141.5625, 32.23135970462001], [139.6875, 32.03168610256865], [138.33566990411668, 31.875], [137.8125, 31.808768204304013], [135.9375, 31.562244699474746], [134.0625, 31.318232402596994], [132.1875, 31.068132951084134], [130.3125, 30.8198436256722], [128.78040088304328, 30.625], [128.4375, 30.575880527331396], [126.5625, 30.338279866697647], [124.6875, 30.13697058077617], [122.8125, 29.98154910089439], [120.9375, 29.878785970507614], [119.0625, 29.865795708792245], [117.1875, 29.930786712496335], [115.3125, 30.10073260073278], [113.4375, 30.375798665758605], [112.32286230868937, 30.625], [111.5625, 30.811014008482168], [109.6875, 31.27770137894651], [108.07379176732388, 31.875], [107.8125, 31.97092173802546], [105.9375, 32.662622256031526], [104.77255884758023, 33.125], [104.0625, 33.42986199275863], [102.21473353271364, 34.375], [102.1875, 34.39037539314279], [100.3125, 35.448240876644874], [100.02363237203565, 35.625], [98.4375, 36.49600614698761], [97.90458151720873, 36.875], [96.5625, 37.53346090515835], [94.6875, 37.84725634919191], [92.8125, 38.01676789868166], [92.1405581401126, 38.125], [90.9375, 38.24226124009296], [89.0625, 38.31983846843638]]}}, {"type": "Feature", "properties": {"dataset": "ssp245_r2", "phase": "neg", "height_gpm": 5870.0, "pressure_hPa": 500, "segment": 0, "period": "2015-2100"}, "geometry": {"type": "LineString", "coordinates": [[89.0625, 35.99048288195949], [89.39322595560714, 35.625], [90.9375, 34.9002907733693], [91.52910041056913, 34.375], [92.27044760229649, 33.125], [90.9375, 32.30488107036759], [89.0625, 32.188333235666164]]}}, {"type": "Feature", "properties": {"dataset": "ssp245_r2", "phase": "neg", "height_gpm": 5870.0, "pressure_hPa": 500, "segment": 1, "period": "2015-2100"}, "geometry": {"type": "LineString", "coordinates": [[-158.4375, 37.270748906042904], [-160.3125, 37.06037224746576], [-161.93149383356723, 36.875], [-162.1875, 36.8411765654871], [-164.0625, 36.5799133035743], [-165.9375, 36.321247842460465], [-167.8125, 36.06788238939983], [-169.6875, 35.82253032860605], [-171.23805518864043, 35.625], [-171.5625, 35.57825635499479], [-173.4375, 35.31009556450379], [-175.3125, 35.06522030608529], [-177.1875, 34.84153442460989], [-179.0625, 34.64098529420397]]}}, {"type": "Feature", "properties": {"dataset": "ssp245_r2", "phase": "neg", "height_gpm": 5870.0, "pressure_hPa": 500, "segment": 1, "period": "2015-2100"}, "geometry": {"type": "LineString", "coordinates": [[179.0625, 34.4608326504339], [178.06570519856893, 34.375], [177.1875, 34.28989692695539], [175.3125, 34.13542103866287], [173.4375, 34.007444410472274], [171.5625, 33.90090171906671], [169.6875, 33.8134878527763], [167.8125, 33.74068943720918], [165.9375, 33.67881049592278], [164.0625, 33.62282890119755], [162.1875, 33.56868228741503], [160.3125, 33.5132201874912], [158.4375, 33.455351514217234], [156.5625, 33.393001590391876], [154.6875, 33.31853222198512], [152.8125, 33.228245572605985], [151.04024454059567, 33.125], [150.9375, 33.11842517595354], [149.0625, 32.97304867932622], [147.1875, 32.7954483821172], [145.3125, 32.58252048701932], [143.4375, 32.33692141925821], [141.5625, 32.064053207589815], [140.3374368562305, 31.875], [139.6875, 31.76564211959195], [137.8125, 31.44795385550492], [135.9375, 31.132988338485966], [134.0625, 30.831358626536673], [132.72087167257092, 30.625], [132.1875, 30.533847788570874], [130.3125, 30.230805056113876], [128.4375, 29.94890220830964], [126.5625, 29.69683261417587], [124.6875, 29.482550163861372], [123.48547279254774, 29.374999999999996], [122.8125, 29.3051597601979], [120.9375, 29.170907085081858], [119.0625, 29.135374673938937], [117.1875, 29.14625623695517], [115.3125, 29.23244499159327], [113.92226992871088, 29.375], [113.4375, 29.426291194097537], [111.5625, 29.75049904281941], [109.6875, 30.121597864304903], [108.1011221957312, 30.625], [107.8125, 30.71814838465523], [105.9375, 31.298997018503286], [104.20947364975086, 31.875], [104.0625, 31.923508467476392], [102.1875, 32.21513419517059], [100.3125, 32.89589352550948], [99.5854857614151, 33.125], [98.4375, 33.626171199854596], [97.1917876239005, 34.375], [96.5625, 35.12592546611915], [96.21073614263548, 35.625], [94.6875, 36.396047418097], [93.11293155181954, 36.875], [92.8125, 36.91204918996194], [91.60839346349837, 36.875], [90.9375, 36.67602907855053], [90.43587353221295, 36.875], [89.0625, 36.96167047195583]]}}, {"type": "Feature", "properties": {"dataset": "ssp245_r5", "phase": "pos", "height_gpm": 5870.0, "pressure_hPa": 500, "segment": 0, "period": "2015-2100"}, "geometry": {"type": "LineString", "coordinates": [[-158.4375, 38.26666310458849], [-159.49494161484233, 38.125], [-160.3125, 38.003106592931005], [-162.1875, 37.698818065041735], [-164.0625, 37.390766409025055], [-165.9375, 37.083922501314916], [-167.20813219511058, 36.875], [-167.8125, 36.76557337356789], [-169.6875, 36.4260791144551], [-171.5625, 36.10496103961249], [-173.4375, 35.808033018318284], [-174.69190955792527, 35.625], [-175.3125, 35.52594398391348], [-177.1875, 35.25429694818876], [-179.0625, 35.018743298319905]]}}, {"type": "Feature", "properties": {"dataset": "ssp245_r5", "phase": "pos", "height_gpm": 5870.0, "pressure_hPa": 500, "segment": 0, "period": "2015-2100"}, "geometry": {"type": "LineString", "coordinates": [[179.0625, 34.81696607883111], [177.1875, 34.64462444242502], [175.3125, 34.49909972888467], [173.4375, 34.37869661500625], [173.36867102178394, 34.375], [171.5625, 34.269105830056475], [169.6875, 34.180803653810635], [167.8125, 34.1122350371045], [165.9375, 34.06095298513909], [164.0625, 34.019604803785064], [162.1875, 33.98510560846012], [160.3125, 33.956248962754096], [158.4375, 33.93222024054836], [156.5625, 33.90556081400852], [154.6875, 33.87069161750484], [152.8125, 33.82080840677281], [150.9375, 33.75285581265874], [149.0625, 33.66310370883452], [147.1875, 33.55123954182532], [145.3125, 33.41752803464976], [143.4375, 33.260724476272394], [142.05251861812053, 33.125], [141.5625, 33.073406172745514], [139.6875, 32.8518891576133], [137.8125, 32.612819297235575], [135.9375, 32.36239463612603], [134.0625, 32.104638896778596], [132.45479704797071, 31.875], [132.1875, 31.83302292863212], [130.3125, 31.551850581471317], [128.4375, 31.287827987849383], [126.5625, 31.042463244843944], [124.6875, 30.839725704761108], [122.8125, 30.70193293398981], [120.9375, 30.631447735715767], [119.0625, 30.6632584892864], [117.1875, 30.8148169187819], [115.3125, 31.11964830513265], [113.4375, 31.59153499232335], [112.65004309476666, 31.875], [111.5625, 32.27951528892291], [109.6875, 33.0109993242735], [109.42174318269309, 33.125], [107.8125, 33.80556655588215], [106.60198948870192, 34.375], [105.9375, 34.67773458502694], [104.18167759981588, 35.625], [104.0625, 35.68725704567548], [102.1875, 36.72985138641171], [101.92665090518716, 36.875], [100.3125, 37.58704132358761], [99.25489423448448, 38.125], [98.4375, 38.39307351219661], [96.5625, 38.84127654041742], [94.6875, 38.96314268567396], [92.8125, 39.032199955961], [90.9375, 39.14526995130423], [89.0625, 39.176638868344355]]}}, {"type": "Feature", "properties": {"dataset": "ssp245_r5", "phase": "neg", "height_gpm": 5870.0, "pressure_hPa": 500, "segment": 0, "period": "2015-2100"}, "geometry": {"type": "LineString", "coordinates": [[-158.4375, 37.923006593354536], [-160.3125, 37.73451852201078], [-162.1875, 37.53571283712101], [-164.0625, 37.32555521984422], [-165.9375, 37.104553039281164], [-167.8125, 36.87554425405525], [-167.81665556179155, 36.875], [-169.6875, 36.60066074062189], [-171.5625, 36.32596066601471], [-173.4375, 36.057847668499015], [-175.3125, 35.80203273209493], [-176.68054471182052, 35.625], [-177.1875, 35.552579042025314], [-179.0625, 35.30096286304675]]}}, {"type": "Feature", "properties": {"dataset": "ssp245_r5", "phase": "neg", "height_gpm": 5870.0, "pressure_hPa": 500, "segment": 0, "period": "2015-2100"}, "geometry": {"type": "LineString", "coordinates": [[179.0625, 35.072202923271064], [177.1875, 34.86533506543904], [175.3125, 34.68128120084783], [173.4375, 34.51582896279789], [171.6875186814121, 34.375], [171.5625, 34.3638665324329], [169.6875, 34.21203153609675], [167.8125, 34.0777380477128], [165.9375, 33.96040411425298], [164.0625, 33.85984045117128], [162.1875, 33.776332498232236], [160.3125, 33.70647664342358], [158.4375, 33.64641298310693], [156.5625, 33.587956306936285], [154.6875, 33.526301057379015], [152.8125, 33.454123343981905], [150.9375, 33.36491162853342], [149.0625, 33.25294749371607], [147.287237968706, 33.125], [147.1875, 33.117195126177414], [145.3125, 32.945140078678264], [143.4375, 32.74781443262846], [141.5625, 32.52363460051118], [139.6875, 32.27852676219725], [137.8125, 32.0155916367455], [136.84282313135037, 31.875], [135.9375, 31.73149591152716], [134.0625, 31.438201403885884], [132.1875, 31.13849215148707], [130.3125, 30.846536766965894], [128.72968521229882, 30.625], [128.4375, 30.57945199747417], [126.5625, 30.34008981383033], [124.6875, 30.15767416019839], [122.8125, 30.032975227980746], [120.9375, 29.967220792031014], [119.0625, 29.992087198950312], [117.1875, 30.091871623214974], [115.3125, 30.289796342477267], [113.4375, 30.596929018437855], [113.316385889799, 30.625], [111.5625, 31.067937331199133], [109.6875, 31.598123757250832], [108.93493169805652, 31.875], [107.8125, 32.28327910868483], [105.9375, 32.981303329038255], [105.52843687436712, 33.125], [104.0625, 33.66928103446559], [102.55994751474066, 34.375], [102.1875, 34.56726285367269], [100.33589775229694, 35.625], [100.3125, 35.636987550454634], [98.4375, 36.67245000456596], [98.14419744686018, 36.875], [96.5625, 37.63592963525464], [94.6875, 37.92848391960816], [92.8125, 38.10577372161441], [92.69984838025852, 38.125], [90.9375, 38.30912537428772], [89.0625, 38.39186687525277]]}}, {"type": "Feature", "properties": {"dataset": "ssp585_r1", "phase": "pos", "height_gpm": 5870.0, "pressure_hPa": 500, "segment": 0, "period": "2015-2100"}, "geometry": {"type": "LineString", "coordinates": [[-158.4375, 39.12814325690527], [-160.3125, 38.90140129595293], [-162.1875, 38.65080001074447], [-164.0625, 38.3832362663173], [-165.79490821678348, 38.125], [-165.9375, 38.10224185406155], [-167.8125, 37.7861752066808], [-169.6875, 37.471271232958316], [-171.5625, 37.1626616426939], [-173.35990103892811, 36.875], [-173.4375, 36.86169542630463], [-175.3125, 36.548483534123406], [-177.1875, 36.26240292681702], [-179.0625, 36.003902201778104]]}}, {"type": "Feature", "properties": {"dataset": "ssp585_r1", "phase": "pos", "height_gpm": 5870.0, "pressure_hPa": 500, "segment": 0, "period": "2015-2100"}, "geometry": {"type": "LineString", "coordinates": [[179.0625, 35.774769942042965], [177.64691977809713, 35.625], [177.1875, 35.57247879073725], [175.3125, 35.389421862673856], [173.4375, 35.23861539899548], [171.5625, 35.11625084924891], [169.6875, 35.01740796355557], [167.8125, 34.942057245398296], [165.9375, 34.88541191782228], [164.0625, 34.844772284051096], [162.1875, 34.8166427739254], [160.3125, 34.79702319629467], [158.4375, 34.77832172666752], [156.5625, 34.75676512575042], [154.6875, 34.72863030106643], [152.8125, 34.6911117468928], [150.9375, 34.6360329576349], [149.0625, 34.556074599254295], [147.1875, 34.445879047798165], [146.2364516831111, 34.375], [145.3125, 34.3007704036314], [143.4375, 34.12262005934663], [141.5625, 33.91524101492267], [139.6875, 33.67573747796688], [137.8125, 33.41336448633596], [135.9375, 33.14164540076565], [135.82647390048442, 33.125], [134.0625, 32.84062064736081], [132.1875, 32.539938157550566], [130.3125, 32.25029418297218], [128.4375, 31.99796688649432], [127.32838242227308, 31.875], [126.5625, 31.782173945134133], [124.6875, 31.63344830220678], [122.8125, 31.575819418357515], [120.9375, 31.630607665517008], [119.0625, 31.820217662101314], [118.74882841075384, 31.875], [117.1875, 32.15978281264654], [115.3125, 32.66599898301339], [114.00493292269147, 33.125], [113.4375, 33.33640550474788], [111.5625, 34.17045221229884], [111.09497397870211, 34.375], [109.6875, 34.98398537255847], [108.37266323326844, 35.625], [107.8125, 35.89223689942167], [105.9375, 36.83384717138977], [105.86227751913162, 36.875], [104.0625, 37.69832070564301], [103.19889528119256, 38.125], [102.1875, 38.50875996699834], [100.3125, 39.15647338022536], [99.70610579517, 39.375], [98.4375, 39.69052047360647], [96.5625, 39.978146267880824], [94.6875, 40.083386101240656], [92.8125, 40.14081344353545], [90.9375, 40.2241374776481], [89.0625, 40.28308456855932]]}}, {"type": "Feature", "properties": {"dataset": "ssp585_r1", "phase": "neg", "height_gpm": 5870.0, "pressure_hPa": 500, "segment": 0, "period": "2015-2100"}, "geometry": {"type": "LineString", "coordinates": [[-158.4375, 39.43599596913696], [-158.9190632344537, 39.375], [-160.3125, 39.18401746206913], [-162.1875, 38.90505799410109], [-164.0625, 38.61701493172615], [-165.9375, 38.32844579988666], [-167.2599862273093, 38.125], [-167.8125, 38.03329684727787], [-169.6875, 37.720874442789125], [-171.5625, 37.42076179152547], [-173.4375, 37.13572767921514], [-175.27210904131653, 36.875], [-175.3125, 36.8687918507744], [-177.1875, 36.60021274397461], [-179.0625, 36.363278363612025]]}}, {"type": "Feature", "properties": {"dataset": "ssp585_r1", "phase": "neg", "height_gpm": 5870.0, "pressure_hPa": 500, "segment": 0, "period": "2015-2100"}, "geometry": {"type": "LineString", "coordinates": [[179.0625, 36.155842850106815], [177.1875, 35.972186555432515], [175.3125, 35.80927374077289], [173.4375, 35.66404646641412], [172.86567416471462, 35.625], [171.5625, 35.528529919115776], [169.6875, 35.409420898899825], [167.8125, 35.3105191442793], [165.9375, 35.2327615295076], [164.0625, 35.173127175753464], [162.1875, 35.126709336607014], [160.3125, 35.08765774302931], [158.4375, 35.04991932640942], [156.5625, 35.01054659174959], [154.6875, 34.96626494181277], [152.8125, 34.908786221440316], [150.9375, 34.83102630470623], [149.0625, 34.725890056484445], [147.1875, 34.59169343471771], [145.3125, 34.4301994875844], [144.74737077261466, 34.375], [143.4375, 34.238211051651234], [141.5625, 34.02171194809833], [139.6875, 33.781045643794066], [137.8125, 33.52426105346566], [135.9375, 33.26536861747597], [134.92287882762605, 33.125], [134.0625, 32.9978728115755], [132.1875, 32.7372777756718], [130.3125, 32.50086261605808], [128.4375, 32.3123381869534], [126.5625, 32.174340415532754], [124.6875, 32.104589084270316], [122.8125, 32.117639227421144], [120.9375, 32.232518609950134], [119.0625, 32.46547952037689], [117.1875, 32.84966616219245], [116.19490583237621, 33.125], [115.3125, 33.3800226913468], [113.4375, 34.05006099267222], [112.67225823225385, 34.375], [111.5625, 34.83313443399239], [109.74327392578141, 35.625], [109.6875, 35.64935314133676], [107.8125, 36.53580228407578], [107.1333261685158, 36.875], [105.9375, 37.40040158739289], [104.35509611461777, 38.125], [104.0625, 38.23574909135511], [102.1875, 38.93970057605336], [100.95516863976343, 39.375], [100.3125, 39.551416613342106], [98.4375, 40.009499242630085], [96.5625, 40.29993864078408], [94.6875, 40.42321274323884], [92.8125, 40.47897101344608], [90.9375, 40.53628351862699], [89.0625, 40.57791189929837]]}}, {"type": "Feature", "properties": {"dataset": "ssp585_r2", "phase": "pos", "height_gpm": 5870.0, "pressure_hPa": 500, "segment": 0, "period": "2015-2100"}, "geometry": {"type": "LineString", "coordinates": [[-158.4375, 38.871066339346164], [-160.3125, 38.6457680789177], [-162.1875, 38.39594814937429], [-164.0625, 38.12817215178977], [-164.08299360798765, 38.125], [-165.9375, 37.811324709933416], [-167.8125, 37.49151227274159], [-169.6875, 37.17664397747634], [-171.54631357134065, 36.875], [-171.5625, 36.872135839992964], [-173.4375, 36.5478227612528], [-175.3125, 36.24709503707324], [-177.1875, 35.97349125775527], [-179.0625, 35.72699647502106], [-179.92582693164957, 35.625]]}}, {"type": "Feature", "properties": {"dataset": "ssp585_r2", "phase": "pos", "height_gpm": 5870.0, "pressure_hPa": 500, "segment": 0, "period": "2015-2100"}, "geometry": {"type": "LineString", "coordinates": [[179.0625, 35.49490180685966], [177.1875, 35.284447717720454], [175.3125, 35.11045417061713], [173.4375, 34.96946114366499], [171.5625, 34.85590842645108], [169.6875, 34.7647889811495], [167.8125, 34.69082689983627], [165.9375, 34.63150807056131], [164.0625, 34.5837202630925], [162.1875, 34.54344641332069], [160.3125, 34.5081262677987], [158.4375, 34.472634662512675], [156.5625, 34.432482101381666], [154.6875, 34.386581738946624], [154.2740568862273, 34.375], [152.8125, 34.33059679091864], [150.9375, 34.26243945155686], [149.0625, 34.177883724150796], [147.1875, 34.07694916536968], [145.3125, 33.96077782254099], [143.4375, 33.82627516731696], [141.5625, 33.66775117049748], [139.6875, 33.4814730081537], [137.8125, 33.27370454303854], [136.54938314886448, 33.125], [135.9375, 33.04685452420155], [134.0625, 32.78855737704908], [132.1875, 32.53008467339501], [130.3125, 32.2822031038218], [128.4375, 32.06975987052841], [126.5625, 31.893117412133588], [126.25573535185009, 31.875], [124.6875, 31.77319890991702], [122.8125, 31.72921446725505], [120.9375, 31.776967808614547], [119.74619804968796, 31.875], [119.0625, 31.932488935987955], [117.1875, 32.22029044435099], [115.3125, 32.66317649353992], [113.82147901437236, 33.125], [113.4375, 33.24996331288178], [111.5625, 33.985907793233174], [110.58082009399453, 34.375], [109.6875, 34.719283415037275], [107.8125, 35.55798726269072], [107.66992375225686, 35.625], [105.9375, 36.400743070535995], [105.02498199041241, 36.875], [104.0625, 37.28817141370746], [102.25978375576688, 38.125], [102.1875, 38.15105630720859], [100.3125, 38.74994200446817], [98.46516194588241, 39.375], [98.4375, 39.38163403404931], [96.5625, 39.66515060819141], [94.6875, 39.76153149939224], [92.8125, 39.80224267441356], [90.9375, 39.862624033394816], [89.0625, 39.88664397770728]]}}, {"type": "Feature", "properties": {"dataset": "ssp585_r2", "phase": "neg", "height_gpm": 5870.0, "pressure_hPa": 500, "segment": 0, "period": "2015-2100"}, "geometry": {"type": "LineString", "coordinates": [[-158.4375, 39.919623778998876], [-160.3125, 39.685710537931016], [-162.1875, 39.42202645211609], [-162.4911842613953, 39.375], [-164.0625, 39.1162518390089], [-165.9375, 38.80125601286561], [-167.8125, 38.492297846348116], [-169.6875, 38.194835981547826], [-170.13952820562452, 38.125], [-171.5625, 37.89192488039343], [-173.4375, 37.60267574499857], [-175.3125, 37.3346920408688], [-177.1875, 37.087312536726124], [-178.94871672600908, 36.875], [-179.0625, 36.86035900603506]]}}, {"type": "Feature", "properties": {"dataset": "ssp585_r2", "phase": "neg", "height_gpm": 5870.0, "pressure_hPa": 500, "segment": 0, "period": "2015-2100"}, "geometry": {"type": "LineString", "coordinates": [[179.0625, 36.63997540130844], [177.1875, 36.45031626910722], [175.3125, 36.28915062548397], [173.4375, 36.15568586077904], [171.5625, 36.050152214990575], [169.6875, 35.96876205325744], [167.8125, 35.91128613292588], [165.9375, 35.875756501481405], [164.0625, 35.85667699248269], [162.1875, 35.848660569283794], [160.3125, 35.8470835354942], [158.4375, 35.8427166570721], [156.5625, 35.82671856765069], [154.6875, 35.79665927105447], [152.8125, 35.748341278421826], [150.9375, 35.67884495022529], [149.81764521929745, 35.625], [149.0625, 35.586754390653724], [147.1875, 35.47120348786353], [145.3125, 35.33262082869785], [143.4375, 35.173232425587805], [141.5625, 34.98785575195937], [139.6875, 34.769665992366654], [137.8125, 34.53115070849429], [136.58105244975388, 34.375], [135.9375, 34.289831520757886], [134.0625, 34.04373993103653], [132.1875, 33.794870783616446], [130.3125, 33.55537660595139], [128.4375, 33.351947294554975], [126.5625, 33.19864306784669], [124.68975045009944, 33.125], [124.6875, 33.12490330357908], [124.68097195355108, 33.125], [122.8125, 33.153131975659704], [120.9375, 33.29962087318021], [119.0625, 33.594203343372286], [117.1875, 34.05844332488219], [116.2147336405888, 34.375], [115.3125, 34.676172544270315], [113.4375, 35.446171703321816], [113.02805489633619, 35.625], [111.5625, 36.233506595906725], [110.18463778622117, 36.875], [109.6875, 37.08856622029395], [107.8125, 37.92813600593141], [107.39260854459172, 38.125], [105.9375, 38.69829576028789], [104.27270101261121, 39.375], [104.0625, 39.44619833069142], [102.1875, 40.03165578697725], [100.3125, 40.567031559909225], [100.06649758129572, 40.625], [98.4375, 40.94978179100153], [96.5625, 41.21850831781302], [94.6875, 41.379439135471074], [92.8125, 41.49780615653777], [90.9375, 41.622894050376935], [89.0625, 41.74428181876665]]}}, {"type": "Feature", "properties": {"dataset": "ssp585_r5", "phase": "pos", "height_gpm": 5870.0, "pressure_hPa": 500, "segment": 0, "period": "2015-2100"}, "geometry": {"type": "LineString", "coordinates": [[-158.4375, 40.41021863148781], [-160.3125, 40.201860343544766], [-162.1875, 39.969020894373664], [-164.0625, 39.71998154018493], [-165.9375, 39.46102207026589], [-166.5412329099293, 39.375], [-167.8125, 39.18037426236819], [-169.6875, 38.89337636608406], [-171.5625, 38.61581563151834], [-173.4375, 38.3530311915467], [-175.1599542864256, 38.125], [-175.3125, 38.10326601043469], [-177.1875, 37.84077524150005], [-179.0625, 37.590258449579686]]}}, {"type": "Feature", "properties": {"dataset": "ssp585_r5", "phase": "pos", "height_gpm": 5870.0, "pressure_hPa": 500, "segment": 0, "period": "2015-2100"}, "geometry": {"type": "LineString", "coordinates": [[179.0625, 37.35261768662189], [177.1875, 37.12838353448289], [175.3125, 36.922809714009674], [174.82810323394096, 36.875], [173.4375, 36.7268442328448], [171.5625, 36.552541024979746], [169.6875, 36.40473457419972], [167.8125, 36.283057062624316], [165.9375, 36.181001669925834], [164.0625, 36.09723214334399], [162.1875, 36.02955716025274], [160.3125, 35.97589640553402], [158.4375, 35.93545874681344], [156.5625, 35.90379206170971], [154.6875, 35.874214310928004], [152.8125, 35.842121051295706], [150.9375, 35.80367962801971], [149.0625, 35.75222815736225], [147.1875, 35.68469890394859], [145.83701685855306, 35.625], [145.3125, 35.60018641595068], [143.4375, 35.49824600958891], [141.5625, 35.37389383168526], [139.6875, 35.21343599213142], [137.8125, 35.0243930004753], [135.9375, 34.82065609066172], [134.0625, 34.613656401363706], [132.1875, 34.405597898196845], [131.87997234429395, 34.375], [130.3125, 34.206035552978086], [128.4375, 34.054581218815265], [126.5625, 33.94586237224739], [124.6875, 33.91412215082187], [122.8125, 33.97608931923727], [120.9375, 34.146571743490085], [119.52425463792832, 34.375], [119.0625, 34.44987117666522], [117.1875, 34.90491808850517], [115.3125, 35.530638239786846], [115.08028345327324, 35.625], [113.4375, 36.271934844260024], [111.98265475894499, 36.875], [111.5625, 37.03866594966052], [109.6875, 37.846469852623194], [109.08452775528804, 38.125], [107.8125, 38.63897898105154], [106.0410857227219, 39.375], [105.9375, 39.4127549693522], [104.0625, 40.07505112677241], [102.32166276019888, 40.625], [102.1875, 40.66223562848985], [100.3125, 41.116451076178436], [98.4375, 41.478489826704354], [96.5625, 41.742383528896426], [95.15455478921172, 41.875], [94.6875, 41.91896643541307], [92.8125, 42.03520616058104], [90.9375, 42.14837457971688], [89.0625, 42.24830478375522]]}}, {"type": "Feature", "properties": {"dataset": "ssp585_r5", "phase": "neg", "height_gpm": 5870.0, "pressure_hPa": 500, "segment": 0, "period": "2015-2100"}, "geometry": {"type": "LineString", "coordinates": [[-158.4375, 39.918586736857876], [-160.3125, 39.76926415336826], [-162.1875, 39.593819895570775], [-164.0625, 39.39382489715611], [-164.21934641770258, 39.375], [-165.9375, 39.152203252958614], [-167.8125, 38.90013173000496], [-169.6875, 38.64510491171529], [-171.5625, 38.39054439992046], [-173.4375, 38.13735729834988], [-173.5272617660117, 38.125], [-175.3125, 37.85978850335898], [-177.1875, 37.585315932873684], [-179.0625, 37.31653711478767]]}}, {"type": "Feature", "properties": {"dataset": "ssp585_r5", "phase": "neg", "height_gpm": 5870.0, "pressure_hPa": 500, "segment": 0, "period": "2015-2100"}, "geometry": {"type": "LineString", "coordinates": [[179.0625, 37.0589510427825], [177.6363282241461, 36.875], [177.1875, 36.81228239473673], [175.3125, 36.57090718640635], [173.4375, 36.355990399423725], [171.5625, 36.16413678860977], [169.6875, 35.99378323413444], [167.8125, 35.84716671464789], [165.9375, 35.724324071303755], [164.0625, 35.62567402850328], [164.0467626559087, 35.625], [162.1875, 35.539296280363814], [160.3125, 35.46654886730077], [158.4375, 35.40349291425345], [156.5625, 35.349420146401094], [154.6875, 35.30228851467997], [152.8125, 35.25771593366071], [150.9375, 35.212748515990974], [149.0625, 35.16466622272227], [147.1875, 35.10586707478299], [145.3125, 35.02879755366126], [143.4375, 34.935179319922476], [141.5625, 34.82050479006448], [139.6875, 34.67796933853477], [137.8125, 34.50614941062767], [136.47472876394772, 34.375], [135.9375, 34.31977200246906], [134.0625, 34.11305095217242], [132.1875, 33.89394858193815], [130.3125, 33.67463845472674], [128.4375, 33.485810799534974], [126.5625, 33.33313912178499], [124.6875, 33.244696124076455], [122.8125, 33.24324561671488], [120.9375, 33.3452958957125], [119.0625, 33.56499358410764], [117.1875, 33.92611339368108], [115.52373821458843, 34.375], [115.3125, 34.43427963648518], [113.4375, 35.08867562956293], [112.07495397159454, 35.625], [111.5625, 35.81501767198024], [109.6875, 36.59983960019857], [109.09980768766326, 36.875], [107.8125, 37.41155355437368], [106.24376072159856, 38.125], [105.9375, 38.241942359623366], [104.0625, 38.96212934793945], [102.95225975352082, 39.375], [102.1875, 39.59899763468782], [100.3125, 40.11036932422067], [98.4375, 40.53717343818773], [97.88779514025276, 40.625], [96.5625, 40.81470331146489], [94.6875, 40.96652399928012], [92.8125, 41.06714588578244], [90.9375, 41.16855983363977], [89.0625, 41.263568315213305]]}}, {"type": "Feature", "properties": {"dataset": "ssp245_member_mean", "phase": "pos", "height_gpm": 5870.0, "pressure_hPa": 500, "segment": 0, "period": "2015-2100"}, "geometry": {"type": "LineString", "coordinates": [[-158.4375, 37.58964521505338], [-160.3125, 37.370348182522534], [-162.1875, 37.12997445716938], [-164.06229187268997, 36.875], [-164.0625, 36.87496807741976], [-165.9375, 36.566461777707616], [-167.8125, 36.25868417568941], [-169.6875, 35.958986714936145], [-171.5625, 35.67337143196876], [-171.88734793657164, 35.625], [-173.4375, 35.36971609626792], [-175.3125, 35.086974974673765], [-177.1875, 34.83423675336731], [-179.0625, 34.60880019476306]]}}, {"type": "Feature", "properties": {"dataset": "ssp245_member_mean", "phase": "pos", "height_gpm": 5870.0, "pressure_hPa": 500, "segment": 0, "period": "2015-2100"}, "geometry": {"type": "LineString", "coordinates": [[179.0625, 34.407670701502454], [178.7283864971169, 34.375], [177.1875, 34.20904623287253], [175.3125, 34.03388849565721], [173.4375, 33.885694395711056], [171.5625, 33.76152353984327], [169.6875, 33.65717140017639], [167.8125, 33.56881467724657], [165.9375, 33.49404287887335], [164.0625, 33.43110320775663], [162.1875, 33.37655716487171], [160.3125, 33.32519464236206], [158.4375, 33.2746213426605], [156.5625, 33.221746783707786], [154.6875, 33.162036424880355], [153.7158750357189, 33.125], [152.8125, 33.08736667865231], [150.9375, 32.99312825805827], [149.0625, 32.88165250473158], [147.1875, 32.74953739637831], [145.3125, 32.595904883555065], [143.4375, 32.419086833646205], [141.5625, 32.217798935501484], [139.6875, 31.99500630457031], [138.75044905370152, 31.875], [137.8125, 31.743874015725254], [135.9375, 31.473352959231207], [134.0625, 31.20424480195013], [132.1875, 30.934346895754576], [130.3125, 30.676031170092376], [129.90946946086876, 30.625], [128.4375, 30.416138358878065], [126.5625, 30.181852285521266], [124.6875, 29.98943081629678], [122.8125, 29.849188497886033], [120.9375, 29.765723050875224], [119.0625, 29.77078248320269], [117.1875, 29.848083674267706], [115.3125, 30.02794728034404], [113.4375, 30.324294994445854], [112.23464002587468, 30.625], [111.5625, 30.80637562464157], [109.6875, 31.317441632677173], [108.22491844445051, 31.875], [107.8125, 32.02865729600537], [105.9375, 32.726488202206426], [104.91307513401341, 33.125], [104.0625, 33.47680146494609], [102.26724269148633, 34.375], [102.1875, 34.4185588558922], [100.3125, 35.47544395691611], [100.07137643859386, 35.625], [98.4375, 36.52267402710587], [97.92961930725727, 36.875], [96.5625, 37.525858045593814], [94.6875, 37.837310162351834], [92.8125, 38.01790873175961], [92.1595632383524, 38.125], [90.9375, 38.24698586353826], [89.0625, 38.328139984132754]]}}, {"type": "Feature", "properties": {"dataset": "ssp245_member_mean", "phase": "neg", "height_gpm": 5870.0, "pressure_hPa": 500, "segment": 0, "period": "2015-2100"}, "geometry": {"type": "LineString", "coordinates": [[-158.4375, 37.381084338378216], [-160.3125, 37.19340610290384], [-162.1875, 36.99384858970093], [-163.23305416203846, 36.875], [-164.0625, 36.76792399251634], [-165.9375, 36.514744438648464], [-167.8125, 36.261106533859405], [-169.6875, 36.01075670670218], [-171.5625, 35.7664878155389], [-172.67495309304206, 35.625], [-173.4375, 35.5165418425338], [-175.3125, 35.26273451835322], [-177.1875, 35.03020860907893], [-179.0625, 34.820064605915974]]}}, {"type": "Feature", "properties": {"dataset": "ssp245_member_mean", "phase": "neg", "height_gpm": 5870.0, "pressure_hPa": 500, "segment": 0, "period": "2015-2100"}, "geometry": {"type": "LineString", "coordinates": [[179.0625, 34.62947454004758], [177.1875, 34.45671043830314], [176.1913421216605, 34.375], [175.3125, 34.29459587678254], [173.4375, 34.142648583859454], [171.5625, 34.00958666213597], [169.6875, 33.89468847690205], [167.8125, 33.795670812054105], [165.9375, 33.710798003968335], [164.0625, 33.63723848929217], [162.1875, 33.573213962575174], [160.3125, 33.51648989608424], [158.4375, 33.46467982632193], [156.5625, 33.411100770545765], [154.6875, 33.35006414316771], [152.8125, 33.274998316661126], [150.9375, 33.18089727311955], [150.04332482238982, 33.125], [149.0625, 33.057919772783045], [147.1875, 32.900197984796634], [145.3125, 32.712097028674265], [143.4375, 32.49524803679654], [141.5625, 32.25185776493537], [139.6875, 31.986970872626312], [138.93322454386032, 31.875], [137.8125, 31.69289523231253], [135.9375, 31.382919795685257], [134.0625, 31.078476804324385], [132.1875, 30.77639516745098], [131.20559728761089, 30.625], [130.3125, 30.471235265021484], [128.4375, 30.179415371584795], [126.5625, 29.929611169012347], [124.6875, 29.732107882018596], [122.8125, 29.589434357708615], [120.9375, 29.502476333090236], [119.0625, 29.504715198699063], [117.1875, 29.563429515489794], [115.3125, 29.708533292464026], [113.4375, 29.954994500317547], [111.5625, 30.362332557251403], [110.38289978309945, 30.625], [109.6875, 30.787355976502752], [107.8125, 31.390030896719324], [106.28423498214272, 31.875], [105.9375, 31.98682378799559], [104.0625, 32.608352274051455], [102.31747901312644, 33.125], [102.1875, 33.17673669448272], [100.3125, 34.10236025176647], [99.79715611167802, 34.375], [98.4375, 35.187774738737446], [97.95551934785794, 35.625], [96.5625, 36.61862341442362], [96.06591637385043, 36.875], [94.6875, 37.195388507947534], [92.8125, 37.408741992501696], [90.9375, 37.56906270669549], [89.0625, 37.74706078884814]]}}, {"type": "Feature", "properties": {"dataset": "ssp585_member_mean", "phase": "pos", "height_gpm": 5870.0, "pressure_hPa": 500, "segment": 0, "period": "2015-2100"}, "geometry": {"type": "LineString", "coordinates": [[-158.4375, 39.50291914498411], [-159.5963169294256, 39.375], [-160.3125, 39.28875417551647], [-162.1875, 39.031962170799574], [-164.0625, 38.75845908156195], [-165.9375, 38.47481520158022], [-167.8125, 38.18717776931345], [-168.2061427510282, 38.125], [-169.6875, 37.87363306174813], [-171.5625, 37.56365748240127], [-173.4375, 37.2694795189981], [-175.3125, 36.993804727932584], [-176.16607036333744, 36.875], [-177.1875, 36.721547810710284], [-179.0625, 36.459182094983746]]}}, {"type": "Feature", "properties": {"dataset": "ssp585_member_mean", "phase": "pos", "height_gpm": 5870.0, "pressure_hPa": 500, "segment": 0, "period": "2015-2100"}, "geometry": {"type": "LineString", "coordinates": [[179.0625, 36.22226067758368], [177.1875, 36.011124772973695], [175.3125, 35.828428154169416], [173.4375, 35.673883609895356], [172.7356477194656, 35.625], [171.5625, 35.5363262585457], [169.6875, 35.418662920552215], [167.8125, 35.32425832412023], [165.9375, 35.247877637503095], [164.0625, 35.18701981523505], [162.1875, 35.13942885741975], [160.3125, 35.10183740226793], [158.4375, 35.06898189582971], [156.5625, 35.037030699428854], [154.6875, 35.0021733253502], [152.8125, 34.96094008526375], [150.9375, 34.907947607179885], [149.0625, 34.83685239177374], [147.1875, 34.74482784388525], [145.3125, 34.63191542219964], [143.4375, 34.498293614593265], [141.98747643958512, 34.375], [141.5625, 34.336085804096534], [139.6875, 34.13480323333428], [137.8125, 33.91111067655804], [135.9375, 33.67757362945769], [134.0625, 33.426763110307355], [132.1875, 33.173400882469956], [131.80924876159582, 33.125], [130.3125, 32.918559587524335], [128.4375, 32.701162428665754], [126.5625, 32.527882805203014], [124.6875, 32.425027938227245], [122.8125, 32.41114320392527], [120.9375, 32.50525366015225], [119.0625, 32.72637427404987], [117.1875, 33.111953353025356], [117.1400792828723, 33.125], [115.3125, 33.641560980491356], [113.4375, 34.35334164401616], [113.38770044927406, 34.375], [111.5625, 35.134223880321024], [110.44181368372165, 35.625], [109.6875, 35.94954334743476], [107.8125, 36.84916158624598], [107.7610074062801, 36.875], [105.9375, 37.6825068143882], [104.99176039723773, 38.125], [104.0625, 38.482041595808646], [102.1875, 39.189738523674635], [101.66056266543086, 39.375], [100.3125, 39.74931363818957], [98.4375, 40.18958653364714], [96.5625, 40.47955599293791], [94.6875, 40.61159747404997], [94.33613908773134, 40.625], [92.8125, 40.67955594395166], [90.9375, 40.74802044530213], [89.0625, 40.80293092223168]]}}, {"type": "Feature", "properties": {"dataset": "ssp585_member_mean", "phase": "neg", "height_gpm": 5870.0, "pressure_hPa": 500, "segment": 0, "period": "2015-2100"}, "geometry": {"type": "LineString", "coordinates": [[-158.4375, 39.75398810181504], [-160.3125, 39.54891854512025], [-161.711369295545, 39.375], [-162.1875, 39.31130359216774], [-164.0625, 39.03486314513415], [-165.9375, 38.75083325949719], [-167.8125, 38.467560944277864], [-169.6875, 38.1887959617678], [-170.11773099649997, 38.125], [-171.5625, 37.89506167935134], [-173.4375, 37.60830922241795], [-175.3125, 37.33717830961397], [-177.1875, 37.082740361989806], [-178.8281364844769, 36.875], [-179.0625, 36.84302678052831]]}}, {"type": "Feature", "properties": {"dataset": "ssp585_member_mean", "phase": "neg", "height_gpm": 5870.0, "pressure_hPa": 500, "segment": 0, "period": "2015-2100"}, "geometry": {"type": "LineString", "coordinates": [[179.0625, 36.60570649660377], [177.1875, 36.394353972268114], [175.3125, 36.207910828887535], [173.4375, 36.044999303418734], [171.5625, 35.90483841164861], [169.6875, 35.785519143484], [167.8125, 35.68781974229577], [166.26629231266156, 35.625], [165.9375, 35.6105788035232], [164.0625, 35.549138127915384], [162.1875, 35.50240652074557], [160.3125, 35.464562684201354], [158.4375, 35.4292174321095], [156.5625, 35.392023101903746], [154.6875, 35.35028568458891], [152.8125, 35.29880452035695], [150.9375, 35.2331672330251], [149.0625, 35.1501390247048], [147.1875, 35.04683424650922], [145.3125, 34.920384139432656], [143.4375, 34.77290946842284], [141.5625, 34.6019252067264], [139.6875, 34.40228715434089], [139.45303399552387, 34.375], [137.8125, 34.17474903288134], [135.9375, 33.942411162411744], [134.0625, 33.70387691764154], [132.1875, 33.46525892434528], [130.3125, 33.23680845836993], [129.20483514550483, 33.125], [128.4375, 33.04203125437325], [126.5625, 32.891439017078326], [124.6875, 32.81295873350248], [122.8125, 32.82768788731459], [120.9375, 32.952855967627336], [119.65634844124372, 33.125], [119.0625, 33.20782072797519], [117.1875, 33.6079227046835], [115.3125, 34.1624921367746], [114.72819648635016, 34.375], [113.4375, 34.86092452063265], [111.61036827953478, 35.625], [111.5625, 35.643985091427076], [109.6875, 36.453390833457384], [108.82060005277663, 36.875], [107.8125, 37.31145656944248], [106.0421366774766, 38.125], [105.9375, 38.16552476472848], [104.0625, 38.889695260636245], [102.78071159665376, 39.375], [102.1875, 39.55237389276536], [100.3125, 40.076039124894024], [98.4375, 40.51070515211675], [97.7209667207353, 40.625], [96.5625, 40.789341666224296], [94.6875, 40.93028211475127], [92.8125, 41.0190586756126], [90.9375, 41.11022738292571], [89.0625, 41.19514855962156]]}}]}